{
  "norad_id": 58195,
  "name": "STARLINK-30827",
  "history": [
    {
      "epoch": "2026-05-04T05:29:54.070656Z",
      "apogee_km": 484.464683096513,
      "perigee_km": 481.76258537173817,
      "latitude_deg": 2.0960438208612547e-05,
      "longitude_deg": -115.24310480650284,
      "height_km": 483.0515620590577,
      "semi_major_axis_km": 6861.250634234125,
      "eccentricity": 0.00019691,
      "inclination_deg": 43.0084,
      "raan_deg": 189.3536,
      "arg_perigee_deg": 263.2041,
      "mean_anomaly_deg": 96.8587,
      "mean_motion_rev_day": 15.27558447
    },
    {
      "epoch": "2026-05-05T12:53:02.975136Z",
      "apogee_km": 484.4364749055476,
      "perigee_km": 481.864864286983,
      "latitude_deg": -1.5546021436510366e-05,
      "longitude_deg": 125.29588016310011,
      "height_km": 482.86299709242684,
      "semi_major_axis_km": 6861.287669596265,
      "eccentricity": 0.0001874,
      "inclination_deg": 43.0076,
      "raan_deg": 181.9687,
      "arg_perigee_deg": 272.9249,
      "mean_anomaly_deg": 87.1388,
      "mean_motion_rev_day": 15.27546079
    },
    {
      "epoch": "2026-05-06T12:25:23.149920Z",
      "apogee_km": 483.88181710501885,
      "perigee_km": 482.26092523941224,
      "latitude_deg": 4.5334254245439626e-05,
      "longitude_deg": 125.70326990847047,
      "height_km": 482.82460976932396,
      "semi_major_axis_km": 6861.208371172215,
      "eccentricity": 0.00011812,
      "inclination_deg": 43.0031,
      "raan_deg": 176.4268,
      "arg_perigee_deg": 271.6703,
      "mean_anomaly_deg": 88.4014,
      "mean_motion_rev_day": 15.27572561
    },
    {
      "epoch": "2026-05-07T19:48:29.902176Z",
      "apogee_km": 483.82276268188343,
      "perigee_km": 482.2241122999476,
      "latitude_deg": -2.4733787937294135e-05,
      "longitude_deg": 6.251411369335119,
      "height_km": 482.69263670685365,
      "semi_major_axis_km": 6861.160437490915,
      "eccentricity": 0.0001165,
      "inclination_deg": 43.004,
      "raan_deg": 169.0421,
      "arg_perigee_deg": 277.7477,
      "mean_anomaly_deg": 82.3242,
      "mean_motion_rev_day": 15.27588569
    }
  ]
}